NORAD_CAT_ID,OBJECT_NAME,OBJECT_TYPE,EPOCH,MEAN_MOTION,ECCENTRICITY,INCLINATION,RA_OF_ASC_NODE,ARG_OF_PERICENTER,MEAN_ANOMALY,BSTAR,MEAN_MOTION_DOT,MEAN_MOTION_DDOT,TLE_LINE0,TLE_LINE1,TLE_LINE2,SEMIMAJOR_AXIS,PERIOD,APOGEE,PERIGEE,DECAYED
51957.0,STARLINK-3694,PAYLOAD,2024-06-12 06:44:12,15.04763776,0.0001523,53.0567,7.7953,88.3147,271.8015,9.154e-05,1.028e-05,0.0,0 STARLINK-3694,1 51957U 22025B   24164.28069984  .00001028  00000-0  91540-4 0  9995,2 51957  53.0567   7.7953 0001523  88.3147 271.8015 15.04763776126197,6930.368,95.696,553.288,551.177,0.0
51957.0,STARLINK-3694,PAYLOAD,2024-06-12 21:05:00,15.04763607,0.0001458,53.0565,5.1194,90.9232,269.1923,-7.2148e-05,-1.305e-05,0.0,0 STARLINK-3694,1 51957U 22025B   24164.87847486 -.00001305  00000-0 -72148-4 0  9994,2 51957  53.0565   5.1194 0001458  90.9232 269.1923 15.04763607125173,6930.368,95.696,553.244,551.223,0.0
51957.0,STARLINK-3694,PAYLOAD,2024-06-13 06:38:51,15.04770954,0.0001477,53.0567,3.3357,92.4102,267.7056,-1.389e-05,-4.75e-06,0.0,0 STARLINK-3694,1 51957U 22025B   24165.27698143 -.00000475  00000-0 -13890-4 0  9999,2 51957  53.0567   3.3357 0001477  92.4102 267.7056 15.04770954125231,6930.346,95.696,553.234,551.187,0.0
51957.0,STARLINK-3694,PAYLOAD,2024-06-13 19:23:59,15.04779704,0.0001257,53.0557,0.9561,97.9805,262.1326,4.2567e-05,3.3e-06,0.0,0 STARLINK-3694,1 51957U 22025B   24165.80832400  .00000330  00000-0  42567-4 0  9995,2 51957  53.0557   0.9561 0001257  97.9805 262.1326 15.04779704125316,6930.319,95.695,553.055,551.313,0.0
51957.0,STARLINK-3694,PAYLOAD,2024-06-14 06:33:29,15.04763531,0.0001335,53.0555,358.8743,94.3967,265.7174,0.00028689,3.814e-05,0.0,0 STARLINK-3694,1 51957U 22025B   24166.27326017  .00003814  00000-0  28689-3 0  9997,2 51957  53.0555 358.8743 0001335  94.3967 265.7174 15.04763531125386,6930.369,95.696,553.159,551.308,0.0
51957.0,STARLINK-3694,PAYLOAD,2024-06-14 19:18:38,15.04767452,0.0001617,53.0572,356.492,99.4171,260.7,0.00016703,2.105e-05,0.0,0 STARLINK-3694,1 51957U 22025B   24166.80461071  .00002105  00000-0  16703-3 0  9992,2 51957  53.0572 356.4920 0001617  99.4171 260.7000 15.04767452125460,6930.357,95.696,553.342,551.101,0.0
51957.0,STARLINK-3694,PAYLOAD,2024-06-15 19:13:17,15.04773055,0.000137,53.0563,352.0351,91.3883,268.7262,1.6259e-05,-4.5e-07,0.0,0 STARLINK-3694,1 51957U 22025B   24167.80089177 -.00000045  00000-0  16259-4 0  9995,2 51957  53.0563 352.0351 0001370  91.3883 268.7262 15.04773055125618,6930.339,95.695,553.154,551.255,0.0
51957.0,STARLINK-3694,PAYLOAD,2024-06-16 12:45:21,15.04766754,0.0001306,53.0561,348.7639,89.8697,270.2441,6.0862e-05,5.91e-06,0.0,0 STARLINK-3694,1 51957U 22025B   24168.53150021  .00000591  00000-0  60862-4 0  9997,2 51957  53.0561 348.7639 0001306  89.8697 270.2441 15.04766754125728,6930.359,95.696,553.129,551.319,0.0
51957.0,STARLINK-3694,PAYLOAD,2024-06-16 19:07:55,15.04775252,0.0001348,53.0562,347.5754,95.1159,264.9983,5.5686e-05,5.17e-06,0.0,0 STARLINK-3694,1 51957U 22025B   24168.79717024  .00000517  00000-0  55686-4 0  9993,2 51957  53.0562 347.5754 0001348  95.1159 264.9983 15.04775252125761,6930.333,95.695,553.132,551.263,0.0
51957.0,STARLINK-3694,PAYLOAD,2024-06-17 20:38:13,15.04759898,0.0001429,53.0567,342.8153,88.6617,271.4535,-1.284e-05,-4.6e-06,0.0,0 STARLINK-3694,1 51957U 22025B   24169.85988327 -.00000460  00000-0 -12840-4 0  9991,2 51957  53.0567 342.8153 0001429  88.6617 271.4535 15.04759898127039,6930.38,95.696,553.235,551.254,0.0
51957.0,STARLINK-3694,PAYLOAD,2024-06-18 10:59:01,15.04760523,0.0001458,53.0567,340.1375,86.8386,273.277,0.00010277,1.188e-05,0.0,0 STARLINK-3694,1 51957U 22025B   24170.45765051  .00001188  00000-0  10277-3 0  9993,2 51957  53.0567 340.1375 0001458  86.8386 273.2770 15.04760523126016,6930.378,95.696,553.253,551.232,0.0
51957.0,STARLINK-3694,PAYLOAD,2024-06-18 18:57:13,15.04771549,0.000137,53.0557,338.6515,86.0814,274.0331,6.1882e-05,6.05e-06,0.0,0 STARLINK-3694,1 51957U 22025B   24170.78973766  .00000605  00000-0  61882-4 0  9995,2 51957  53.0557 338.6515 0001370  86.0814 274.0331 15.04771549127174,6930.344,95.696,553.158,551.26,0.0
51957.0,STARLINK-3694,PAYLOAD,2024-06-19 10:53:39,15.0476242,0.0001361,53.056,335.6771,86.2143,273.9001,9.293e-05,1.048e-05,0.0,0 STARLINK-3694,1 51957U 22025B   24171.45392955  .00001048  00000-0  92930-4 0  9995,2 51957  53.0560 335.6771 0001361  86.2143 273.9001 15.04762420127277,6930.372,95.696,553.18,551.294,0.0
51957.0,STARLINK-3694,PAYLOAD,2024-06-19 17:16:13,15.04763716,0.0001213,53.0544,334.4867,91.7506,268.3622,0.00010503,1.22e-05,0.0,0 STARLINK-3694,1 51957U 22025B   24171.71960329  .00001220  00000-0  10503-3 0  9997,2 51957  53.0544 334.4867 0001213  91.7506 268.3622 15.04763716126200,6930.368,95.696,553.074,551.392,0.0
51957.0,STARLINK-3694,PAYLOAD,2024-06-20 13:59:35,15.04767313,0.0001203,53.0544,330.6201,91.3512,268.7615,3.7564e-05,2.59e-06,0.0,0 STARLINK-3694,1 51957U 22025B   24172.58304765  .00000259  00000-0  37564-4 0  9997,2 51957  53.0544 330.6201 0001203  91.3512 268.7615 15.04767313126339,6930.357,95.696,553.056,551.388,0.0
51957.0,STARLINK-3694,PAYLOAD,2024-06-20 20:22:09,15.04774879,0.0001279,53.0565,329.4304,88.0932,272.0202,4.0081e-05,2.94e-06,0.0,0 STARLINK-3694,1 51957U 22025B   24172.84871792  .00000294  00000-0  40081-4 0  9992,2 51957  53.0565 329.4304 0001279  88.0932 272.0202 15.04774879127486,6930.334,95.695,553.085,551.312,0.0
51957.0,STARLINK-3694,PAYLOAD,2024-06-21 10:42:57,15.04760649,0.0001321,53.0546,326.7517,92.646,267.4679,-2.6036e-05,-6.48e-06,0.0,0 STARLINK-3694,1 51957U 22025B   24173.44649898 -.00000648  00000-0 -26036-4 0  9998,2 51957  53.0546 326.7517 0001321  92.6460 267.4679 15.04760649127572,6930.377,95.696,553.158,551.327,0.0
51957.0,STARLINK-3694,PAYLOAD,2024-06-21 13:54:14,15.04762596,0.0001402,53.0549,326.1572,91.3258,268.7891,-1.0941e-05,-4.33e-06,0.0,0 STARLINK-3694,1 51957U 22025B   24173.57933620 -.00000433  00000-0 -10941-4 0  9991,2 51957  53.0549 326.1572 0001402  91.3258 268.7891 15.04762596126483,6930.372,95.696,553.208,551.265,0.0
51957.0,STARLINK-3694,PAYLOAD,2024-06-21 17:05:31,15.04764412,0.0001271,53.0563,325.5644,91.1845,268.9289,-1.5959e-05,-5.04e-06,0.0,0 STARLINK-3694,1 51957U 22025B   24173.71217236 -.00000504  00000-0 -15959-4 0  9998,2 51957  53.0563 325.5644 0001271  91.1845 268.9289 15.04764412126501,6930.366,95.696,553.112,551.35,0.0
51957.0,STARLINK-3694,PAYLOAD,2024-06-22 10:37:35,15.04770418,0.0001357,53.0555,322.2899,91.0535,269.0609,-3.8373e-05,-8.24e-06,0.0,0 STARLINK-3694,1 51957U 22025B   24174.44277707 -.00000824  00000-0 -38373-4 0  9998,2 51957  53.0555 322.2899 0001357  91.0535 269.0609 15.04770418127724,6930.347,95.696,553.153,551.272,0.0
51957.0,STARLINK-3694,PAYLOAD,2024-06-22 13:48:51,15.04829593,0.0001677,53.0556,321.6953,78.6845,281.4331,-0.00087804,-0.00012792,0.0,0 STARLINK-3694,1 51957U 22025B   24174.57559676 -.00012792  00000-0 -87804-3 0  9999,2 51957  53.0556 321.6953 0001677  78.6845 281.4331 15.04829593126637,6930.166,95.692,553.193,550.869,0.0
51957.0,STARLINK-3694,PAYLOAD,2024-06-22 18:35:48,15.04774317,0.0001276,53.0556,320.8032,88.1552,271.9583,7.704e-05,8.22e-06,0.0,0 STARLINK-3694,1 51957U 22025B   24174.77486515  .00000822  00000-0  77040-4 0  9993,2 51957  53.0556 320.8032 0001276  88.1552 271.9583 15.04774317126661,6930.336,95.695,553.085,551.316,0.0
51957.0,STARLINK-3694,PAYLOAD,2024-06-23 08:56:36,15.04763352,0.0001363,53.0565,318.1323,86.8667,273.2477,0.00011023,1.294e-05,0.0,0 STARLINK-3694,1 51957U 22025B   24175.37264101  .00001294  00000-0  11023-3 0  9997,2 51957  53.0565 318.1323 0001363  86.8667 273.2477 15.04763352127860,6930.369,95.696,553.179,551.29,0.0
51957.0,STARLINK-3694,PAYLOAD,2024-06-23 13:43:32,15.04762959,0.0001363,53.0567,317.2389,86.977,273.1374,6.7524e-05,6.86e-06,0.0,0 STARLINK-3694,1 51957U 22025B   24175.57189949  .00000686  00000-0  67524-4 0  9997,2 51957  53.0567 317.2389 0001363  86.9770 273.1374 15.04762959126787,6930.37,95.696,553.18,551.291,0.0
51957.0,STARLINK-3694,PAYLOAD,2024-06-24 13:38:09,15.04777044,0.0001452,53.0558,312.7765,88.8825,271.2329,6.8342e-05,6.97e-06,0.0,0 STARLINK-3694,1 51957U 22025B   24176.56817075  .00000697  00000-0  68342-4 0  9996,2 51957  53.0558 312.7765 0001452  88.8825 271.2329 15.04777044128047,6930.327,95.695,553.198,551.186,0.0
51957.0,STARLINK-3694,PAYLOAD,2024-06-24 15:13:48,15.04777822,0.0001398,53.0563,312.4795,89.5712,270.5437,7.8578e-05,8.44e-06,0.0,0 STARLINK-3694,1 51957U 22025B   24176.63458824  .00000844  00000-0  78578-4 0  9993,2 51957  53.0563 312.4795 0001398  89.5712 270.5437 15.04777822126948,6930.325,95.695,553.159,551.221,0.0
51957.0,STARLINK-3694,PAYLOAD,2024-06-25 13:32:49,15.04764871,0.000147,53.0582,308.3176,72.4095,287.7054,-8.62e-06,-4e-06,0.0,0 STARLINK-3694,1 51957U 22025B   24177.56446175 -.00000400  00000-0 -86200-5 0  9994,2 51957  53.0582 308.3176 0001470  72.4095 287.7054 15.04764871128196,6930.365,95.696,553.248,551.211,0.0
51957.0,STARLINK-3694,PAYLOAD,2024-06-25 16:44:06,15.04768662,0.000153,53.0584,307.7208,62.9142,297.2003,6.0563e-06,-1.91e-06,0.0,0 STARLINK-3694,1 51957U 22025B   24177.69729699 -.00000191  00000-0  60563-5 0  9993,2 51957  53.0584 307.7208 0001530  62.9142 297.2003 15.04768662127103,6930.353,95.696,553.278,551.158,0.0
51957.0,STARLINK-3694,PAYLOAD,2024-06-26 11:51:48,15.04774821,0.0001167,53.0559,304.149,96.7161,263.396,-3.4436e-05,-7.68e-06,0.0,0 STARLINK-3694,1 51957U 22025B   24178.49431596 -.00000768  00000-0 -34436-4 0  9998,2 51957  53.0559 304.1490 0001167  96.7161 263.3960 15.04774821128337,6930.334,95.695,553.008,551.39,0.0
51957.0,STARLINK-3694,PAYLOAD,2024-06-27 13:22:06,15.04768133,0.0001147,53.0558,299.3918,76.7496,283.362,3.7445e-05,2.57e-06,0.0,0 STARLINK-3694,1 51957U 22025B   24179.55701960  .00000257  00000-0  37445-4 0  9995,2 51957  53.0558 299.3918 0001147  76.7496 283.3620 15.04768133128494,6930.355,95.696,553.014,551.425,0.0
